[Satellite]
VERSION=1.1
NAME=AIM
NICKNAME=AIM
TLE1=1 31304U 07015A   17186.09022292  .00000473  00000-0  31635-4 0  9999
TLE2=2 31304  98.0008   5.9155 0006707  79.5980 280.6005 15.12075420557646
